H1 CPF 01  gfz 2021 04 01 00  5911 tandemx   
H2 1003001  6202 36605    2021 04 01 00 59 42 2021 04 06 00 00 42   120 1 1  0 0 0
H9
10 0 59308  42462.000000  0     197376.361   5571229.969   4037627.049
10 0 59308  42582.000000  0     366156.573   4986086.867   4729360.415
10 0 59308  42702.000000  0     517511.243   4311013.965   5337862.761
10 0 59308  42822.000000  0     647331.421   3558175.452   5852460.102
10 0 59308  42942.000000  0     752111.836   2741152.539   6264138.280
10 0 59308  43062.000000  0     829033.348   1874690.732   6565695.448
10 0 59308  43182.000000  0     876028.976    974429.005   6751862.163
10 0 59308  43302.000000  0     891832.134     56614.951   6819387.348
10 0 59308  43422.000000  0     876006.217   -862187.360   6767091.539
10 0 59308  43542.000000  0     828954.834  -1765396.153   6595887.453
10 0 59308  43662.000000  0     751912.547  -2636711.027   6308765.318
10 0 59308  43782.000000  0     646916.278  -3460408.795   5910744.120
10 0 59308  43902.000000  0     516757.503  -4221628.975   5408786.362
10 0 59308  44022.000000  0     364917.770  -4906643.962   4811682.164
10 0 59308  44142.000000  0     195487.780  -5503112.846   4129902.885
10 0 59308  44262.000000  0      13070.231  -6000314.220   3375422.170
10 0 59308  44382.000000  0    -177331.174  -6389349.420   2561507.120
10 0 59308  44502.000000  0    -370433.509  -6663311.464   1702483.128
10 0 59308  44622.000000  0    -560804.523  -6817415.989    813478.928
10 0 59308  44742.000000  0    -742997.748  -6849092.982    -89847.313
10 0 59308  44862.000000  0    -911689.086  -6758031.137   -991593.911
10 0 59308  44982.000000  0   -1061810.421  -6546175.817  -1875904.615
10 0 59308  45102.000000  0   -1188677.606  -6217682.586  -2727254.509
10 0 59308  45222.000000  0   -1288110.052  -5778827.744  -3530728.280
10 0 59308  45342.000000  0   -1356538.633  -5237877.133  -4272284.661
10 0 59308  45462.000000  0   -1391098.964  -4604917.352  -4939000.341
10 0 59308  45582.000000  0   -1389708.404  -3891656.031  -5519289.264
10 0 59308  45702.000000  0   -1351125.322  -3111196.061  -6003095.549
10 0 59308  45822.000000  0   -1274989.514  -2277788.285  -6382057.711
10 0 59308  45942.000000  0   -1161843.385  -1406567.679  -6649641.559
10 0 59308  46062.000000  0   -1013134.136   -513279.391  -6801241.607
10 0 59308  46182.000000  0    -831196.964    386001.873  -6834251.712
10 0 59308  46302.000000  0    -619218.443   1275154.335  -6748104.055
10 0 59308  46422.000000  0    -381182.003   2138290.378  -6544277.717
10 0 59308  46542.000000  0    -121796.355   2960033.080  -6226276.774
10 0 59308  46662.000000  0     153593.939   3725786.311  -5799578.240
10 0 59308  46782.000000  0     439114.169   4421992.909  -5271546.719
10 0 59308  46902.000000  0     728478.592   5036376.271  -4651318.767
10 0 59308  47022.000000  0    1015122.133   5558163.636  -3949656.410
10 0 59308  47142.000000  0    1292342.316   5978284.369  -3178769.662
10 0 59308  47262.000000  0    1553448.137   6289538.991  -2352111.311
10 0 59308  47382.000000  0    1791912.927   6486735.418  -1484145.770
10 0 59308  47502.000000  0    2001527.765   6566787.597   -590095.121
10 0 59308  47622.000000  0    2176551.088   6528772.398    314332.584
10 0 59308  47742.000000  0    2311850.268   6373943.229   1213226.018
10 0 59308  47862.000000  0    2403032.051   6105700.280   2090758.278
10 0 59308  47982.000000  0    2446558.186   5729517.785   2931473.703
10 0 59308  48102.000000  0    2439843.841   5252830.483   3720567.742
10 0 59308  48222.000000  0    2381335.605   4684881.623   4444154.462
10 0 59308  48342.000000  0    2270566.638   4036534.991   5089516.417
10 0 59308  48462.000000  0    2108187.156   3320055.343   5645326.731
10 0 59308  48582.000000  0    1895972.992   2548869.560   6101843.302
10 0 59308  48702.000000  0    1636810.540   1737309.354   6451075.722
10 0 59308  48822.000000  0    1334657.625    900339.420   6686919.619
10 0 59308  48942.000000  0     994482.116     53279.008   6805256.021
10 0 59308  49062.000000  0     622179.921   -788477.132   6804019.006
10 0 59308  49182.000000  0     224472.536  -1609738.679   6683231.060
10 0 59308  49302.000000  0    -191214.560  -2395793.906   6445002.440
10 0 59308  49422.000000  0    -616890.408  -3132673.985   6093496.051
10 0 59308  49542.000000  0   -1044150.197  -3807402.063   5634856.796
10 0 59308  49662.000000  0   -1464338.147  -4408223.113   5077110.339
10 0 59308  49782.000000  0   -1868721.845  -4924814.427   4430031.399
10 0 59308  49902.000000  0   -2248673.826  -5348472.309   3704978.431
10 0 59308  50022.000000  0   -2595855.571  -5672268.144   2914695.751
10 0 59308  50142.000000  0   -2902398.954  -5891168.603   2073088.449
10 0 59308  50262.000000  0   -3161081.447  -6002119.542   1194974.932
10 0 59308  50382.000000  0   -3365490.999  -6004091.087    295820.421
10 0 59308  50502.000000  0   -3510176.179  -5898082.080   -608542.964
10 0 59308  50622.000000  0   -3590777.801  -5687083.622  -1502203.968
10 0 59308  50742.000000  0   -3604138.443  -5376001.765  -2369461.115
10 0 59308  50862.000000  0   -3548387.189  -4971541.846  -3195105.864
10 0 59308  50982.000000  0   -3422997.087  -4482057.809  -3964693.595
10 0 59308  51102.000000  0   -3228814.478  -3917371.858  -4664796.134
10 0 59308  51222.000000  0   -2968060.820  -3288569.885  -5283232.146
10 0 59308  51342.000000  0   -2644307.475  -2607777.100  -5809271.829
10 0 59308  51462.000000  0   -2262424.474  -1887919.799  -6233813.373
10 0 59308  51582.000000  0   -1828503.830  -1142477.835  -6549530.020
10 0 59308  51702.000000  0   -1349759.604   -385232.547  -6750984.581
10 0 59308  51822.000000  0    -834408.125    369984.254  -6834711.867
10 0 59308  51942.000000  0    -291529.229   1109536.438  -6799271.677
10 0 59308  52062.000000  0     269090.037   1820223.320  -6645270.603
10 0 59308  52182.000000  0     837126.104   2489508.999  -6375354.235
10 0 59308  52302.000000  0    1401905.385   3105740.294  -5994168.097
10 0 59308  52422.000000  0    1952600.426   3658348.476  -5508285.353
10 0 59308  52542.000000  0    2478434.038   4138031.352  -4926104.095
10 0 59308  52662.000000  0    2968888.374   4536914.223  -4257714.073
10 0 59308  52782.000000  0    3413915.064   4848686.559  -3514732.250
10 0 59308  52902.000000  0    3804142.373   5068710.137  -2710109.399
10 0 59308  53022.000000  0    4131075.314   5194095.811  -1857908.909
10 0 59308  53142.000000  0    4387281.877   5223746.260   -973062.437
10 0 59308  53262.000000  0    4566562.309   5158364.740    -71105.663
10 0 59308  53382.000000  0    4664095.843   5000425.698    832100.858
10 0 59308  53502.000000  0    4676559.445   4754109.552   1720657.631
10 0 59308  53622.000000  0    4602218.739   4425205.250   2578913.589
10 0 59308  53742.000000  0    4440987.155   4020979.098   3391752.092
10 0 59308  53862.000000  0    4194448.904   3550013.846   4144864.630
10 0 59308  53982.000000  0    3865848.462   3022023.314   4825006.110
10 0 59308  54102.000000  0    3460048.154   2447648.665   5420230.217
10 0 59308  54222.000000  0    2983449.750   1838238.345   5920098.026
10 0 59308  54342.000000  0    2443888.408   1205620.492   6315855.532
10 0 59308  54462.000000  0    1850499.562    561870.173   6600580.820
10 0 59308  54582.000000  0    1213560.904    -80921.039   6769298.560
10 0 59308  54702.000000  0     544312.347   -710871.119   6819063.360
10 0 59308  54822.000000  0    -145243.328  -1316527.800   6749008.089
10 0 59308  54942.000000  0    -842555.955  -1887076.435   6560357.440
10 0 59308  55062.000000  0   -1534755.998  -2412533.216   6256406.513
10 0 59308  55182.000000  0   -2208889.770  -2883919.514   5842465.948
10 0 59308  55302.000000  0   -2852160.833  -3293417.210   5325776.922
10 0 59308  55422.000000  0   -3452176.634  -3634502.967   4715391.830
10 0 59308  55542.000000  0   -3997192.054  -3902055.820   4022019.494
10 0 59308  55662.000000  0   -4476343.363  -4092437.070   3257840.316
10 0 59308  55782.000000  0   -4879869.311  -4203541.212   2436294.312
10 0 59308  55902.000000  0   -5199315.541  -4234817.028   1571843.736
10 0 59308  56022.000000  0   -5427715.404  -4187256.141    679713.326
10 0 59308  56142.000000  0   -5559742.711  -4063349.638   -224384.718
10 0 59308  56262.000000  0   -5591832.601  -3867014.129  -1124536.097
10 0 59308  56382.000000  0   -5522266.811  -3603488.474  -2004914.613
10 0 59308  56502.000000  0   -5351219.801  -3279203.140  -2850068.695
10 0 59308  56622.000000  0   -5080766.890  -2901628.025  -3645197.282
10 0 59308  56742.000000  0   -4714854.960  -2479102.025  -4376410.453
10 0 59308  56862.000000  0   -4259236.907  -2020649.158  -5030970.144
10 0 59308  56982.000000  0   -3721371.628  -1535785.921  -5597506.564
10 0 59308  57102.000000  0   -3110292.947  -1034323.785  -6066207.033
10 0 59308  57222.000000  0   -2436451.014   -526171.752  -6428974.937
10 0 59308  57342.000000  0   -1711529.076    -21143.183  -6679558.108
10 0 59308  57462.000000  0    -948239.570    471229.350  -6813644.563
10 0 59308  57582.000000  0    -160104.846    941868.705  -6828928.201
10 0 59308  57702.000000  0     638776.592   1382316.185  -6725143.732
10 0 59308  57822.000000  0    1433975.128   1784878.907  -6504072.767
10 0 59308  57942.000000  0    2210985.670   2142762.503  -6169517.458
10 0 59308  58062.000000  0    2955487.563   2450184.947  -5727242.055
10 0 59308  58182.000000  0    3653605.123   2702470.135  -5184882.442
10 0 59308  58302.000000  0    4292165.513   2896120.448  -4551826.757
10 0 59308  58422.000000  0    4858951.326   3028867.201  -3839064.179
10 0 59308  58542.000000  0    5342940.269   3099696.292  -3059002.697
10 0 59308  58662.000000  0    5734526.771   3108849.500  -2225260.445
10 0 59308  58782.000000  0    6025722.739   3057800.966  -1352430.906
10 0 59308  58902.000000  0    6210328.658   2949206.701   -455826.046
99
